OBJECT_NAME,OBJECT_ID,EPOCH,MEAN_MOTION,ECCENTRICITY,INCLINATION,RA_OF_ASC_NODE,ARG_OF_PERICENTER,MEAN_ANOMALY,EPHEMERIS_TYPE,CLASSIFICATION_TYPE,NORAD_CAT_ID,ELEMENT_SET_NO,REV_AT_EPOCH,BSTAR,MEAN_MOTION_DOT,MEAN_MOTION_DDOT
IONOSFERA-M 2,2024-199B,2026-06-14T15:01:29.310816,14.22757101,.00011518,98.7175,38.7359,41.3154,318.8111,0,U,61736,999,13046,.42761544E-4,.52E-6,0
PRSC-EO1,2025-012A,2026-06-14T14:53:10.474368,15.17741125,.00043289,97.4231,238.1302,262.5222,97.5520,0,U,62725,999,7780,.35232318E-3,.7047E-4,0
BIOMASS,2025-090A,2026-06-14T12:15:28.974528,14.67539729,.00013627,98.0742,352.8667,92.3225,267.8135,0,U,63772,999,6029,.1670044E-3,.899E-5,0
GOSAT-GW (IBUKI GW),2025-141A,2026-06-14T14:22:55.427232,14.67552608,.00014332,98.0569,102.9584,82.9668,277.1700,0,U,64694,999,5146,.20336346E-3,.1106E-4,0
IONOSFERA-M 3,2025-155A,2026-06-14T15:23:40.122240,14.21486036,.00008568,98.6023,127.6105,161.7536,198.3673,0,U,64876,999,4604,.33476493E-4,.3E-6,0
IONOSFERA-M 4,2025-155B,2026-06-14T14:32:29.213952,14.21488232,.0000961,98.6030,127.4933,120.4009,239.7264,0,U,64877,999,4603,.32132928E-4,.27E-6,0
MICROCARB,2025-156A,2026-06-14T03:49:38.363520,14.72322667,.0014984,97.9831,242.3508,282.8440,77.1094,0,U,64899,999,4752,.78846141E-4,.449E-5,0
CO3D 3,2025-156B,2026-06-14T13:18:47.893536,15.20203168,.00013303,97.4335,244.2853,132.1310,228.0039,0,U,64900,999,4913,.20030805E-3,.4271E-4,0
CO3D 4,2025-156C,2026-06-14T13:19:00.964992,15.20204408,.00004015,97.4334,244.2855,12.1596,347.9648,0,U,64901,999,4913,.14611653E-4,.249E-5,0
CO3D 2,2025-156D,2026-06-14T12:31:00.186816,15.20199989,.00014819,97.4335,244.1515,108.6910,251.4486,0,U,64902,999,4912,.20461579E-3,.4364E-4,0
CO3D 1,2025-156E,2026-06-14T12:31:13.229760,15.20199285,.00012577,97.4334,244.1518,112.5867,247.5502,0,U,64903,999,4912,.22888001E-3,.489E-4,0
PRSC-S1,2025-164A,2026-06-14T16:16:49.179072,15.06438669,.00070092,41.1314,301.9412,328.6551,31.3844,0,U,65055,999,4805,.31055823E-3,.4488E-4,0
SENTINEL-6B,2025-264A,2026-06-14T06:36:08.467200,12.80929963,.00080327,66.0392,141.2269,269.2138,90.7956,0,U,66514,999,2679,.3196061E-5,-.6E-6,0
CAS500-3,2025-274F,2026-06-14T12:37:25.290624,14.88315362,.00066547,97.7447,93.6375,117.0015,243.1882,0,U,66655,999,2975,.12503597E-3,.1103E-4,0
CSG-3,2026-001A,2026-06-14T11:58:00.217632,14.82152139,.00013374,97.8885,349.1393,94.4948,265.6418,0,U,67304,999,2406,.43148751E-4,.291E-5,0
PRSC-E03,2026-092A,2026-06-14T06:31:50.153664,15.06655242,.00042571,38.0002,106.8693,341.9194,18.1416,0,U,68835,999,751,.17132964E-3,.2482E-4,0
CAS500-2,2026-100AK,2026-06-14T10:53:55.715712,15.20562128,.00109288,97.4086,63.3568,43.3212,316.8881,0,U,69013,999,639,.29683036E-3,.6441E-4,0
