IONOSFERA-M 2           
1 61736U 24199B   26165.62603369  .00000052  00000+0  42762-4 0  9994
2 61736  98.7175  38.7359 0001151  41.3154 318.8111 14.22757101130460
PRSC-EO1                
1 62725U 25012A   26165.62026012  .00007047  00000+0  35232-3 0  9996
2 62725  97.4231 238.1302 0004328 262.5222  97.5520 15.17741125 77801
BIOMASS                 
1 63772U 25090A   26165.51075202  .00000899  00000+0  16700-3 0  9995
2 63772  98.0742 352.8667 0001362  92.3225 267.8135 14.67539729 60291
GOSAT-GW (IBUKI GW)     
1 64694U 25141A   26165.59925263  .00001106  00000+0  20336-3 0  9997
2 64694  98.0569 102.9584 0001433  82.9668 277.1700 14.67552608 51461
IONOSFERA-M 3           
1 64876U 25155A   26165.64143660  .00000030  00000+0  33476-4 0  9998
2 64876  98.6023 127.6105 0000856 161.7536 198.3673 14.21486036 46047
IONOSFERA-M 4           
1 64877U 25155B   26165.60589368  .00000027  00000+0  32133-4 0  9999
2 64877  98.6030 127.4933 0000961 120.4009 239.7264 14.21488232 46032
MICROCARB               
1 64899U 25156A   26165.15947180  .00000449  00000+0  78846-4 0  9993
2 64899  97.9831 242.3508 0014984 282.8440  77.1094 14.72322667 47529
CO3D 3                  
1 64900U 25156B   26165.55472099  .00004271  00000+0  20031-3 0  9991
2 64900  97.4335 244.2853 0001330 132.1310 228.0039 15.20203168 49137
CO3D 4                  
1 64901U 25156C   26165.55487228  .00000249  00000+0  14612-4 0  9992
2 64901  97.4334 244.2855 0000401  12.1596 347.9648 15.20204408 49135
CO3D 2                  
1 64902U 25156D   26165.52152994  .00004364  00000+0  20462-3 0  9990
2 64902  97.4335 244.1515 0001481 108.6910 251.4486 15.20199989 49124
CO3D 1                  
1 64903U 25156E   26165.52168090  .00004890  00000+0  22888-3 0  9993
2 64903  97.4334 244.1518 0001257 112.5867 247.5502 15.20199285 49127
PRSC-S1                 
1 65055U 25164A   26165.67834698  .00004488  00000+0  31056-3 0  9991
2 65055  41.1314 301.9412 0007009 328.6551  31.3844 15.06438669 48051
SENTINEL-6B             
1 66514U 25264A   26165.27509800 -.00000060  00000+0  31961-5 0  9993
2 66514  66.0392 141.2269 0008032 269.2138  90.7956 12.80929963 26798
CAS500-3                
1 66655U 25274F   26165.52598716  .00001103  00000+0  12504-3 0  9990
2 66655  97.7447  93.6375 0006654 117.0015 243.1882 14.88315362 29759
CSG-3                   
1 67304U 26001A   26165.49861363  .00000291  00000+0  43149-4 0  9995
2 67304  97.8885 349.1393 0001337  94.4948 265.6418 14.82152139 24061
PRSC-E03                
1 68835U 26092A   26165.27210826  .00002482  00000+0  17133-3 0  9990
2 68835  38.0002 106.8693 0004257 341.9194  18.1416 15.06655242  7517
CAS500-2                
1 69013U 26100AK  26165.45411708  .00006441  00000+0  29683-3 0  9993
2 69013  97.4086  63.3568 0010928  43.3212 316.8881 15.20562128  6396
